NORAD_CAT_ID,OBJECT_NAME,OBJECT_TYPE,EPOCH,MEAN_MOTION,ECCENTRICITY,INCLINATION,RA_OF_ASC_NODE,ARG_OF_PERICENTER,MEAN_ANOMALY,BSTAR,MEAN_MOTION_DOT,MEAN_MOTION_DDOT,TLE_LINE0,TLE_LINE1,TLE_LINE2,SEMIMAJOR_AXIS,PERIOD,APOGEE,PERIGEE,DECAYED
54170.0,STARLINK-5155,PAYLOAD,2022-12-28 22:00:00,15.20323148,0.0001328,53.2168,202.2058,106.8229,160.1126,-0.0490079999999999,-0.00993477,0.0,0 STARLINK-5155,1 54170U 22141P   22362.91667824 -.00993477  00000-0 -49008-1 0  9998,2 54170  53.2168 202.2058 0001328 106.8229 160.1126 15.20323148  9707,6883.002,94.717,505.781,503.953,0.0
54170.0,STARLINK-5155,PAYLOAD,2022-12-29 06:00:02,15.19578352,0.0001210999999999,53.2165,200.6822,87.0137,204.9707,-0.0554029999999999,-0.01103997,0.0,0 STARLINK-5155,1 54170U 22141P   22363.25002315 -.01103997  00000-0 -55403-1 0  9991,2 54170  53.2165 200.6822 0001211  87.0137 204.9707 15.19578352  9758,6885.251,94.763,507.95,506.282,0.0
54170.0,STARLINK-5155,PAYLOAD,2022-12-29 14:00:01,15.18782864,0.0001284,53.2167,199.1612,77.2611,238.6911,-0.058057,-0.01128388,0.0,0 STARLINK-5155,1 54170U 22141P   22363.58334491 -.01128388  00000-0 -58057-1 0  9999,2 54170  53.2167 199.1612 0001284  77.2611 238.6911 15.18782864  1305,6887.655,94.813,510.404,508.636,0.0
54170.0,STARLINK-5155,PAYLOAD,2022-12-29 22:00:00,15.17948429,0.000124,53.2168,197.6445,106.3674,232.6555,-0.057859,-0.01099887,0.0,0 STARLINK-5155,1 54170U 22141P   22363.91667824 -.01099887  00000-0 -57859-1 0  9995,2 54170  53.2168 197.6445 0001240 106.3674 232.6555 15.17948429  9854,6890.179,94.865,512.898,511.189,0.0
54170.0,STARLINK-5155,PAYLOAD,2022-12-30 14:00:01,15.16304543,0.0001226,53.2165,194.6112,80.407,301.8142,-0.059197,-0.01075179,0.0,0 STARLINK-5155,1 54170U 22141P   22364.58334491 -.01075179  00000-0 -59197-1 0  9995,2 54170  53.2165 194.6112 0001226  80.4070 301.8142 15.16304543  9959,6895.158,94.968,517.868,516.178,0.0
54170.0,STARLINK-5155,PAYLOAD,2022-12-30 22:00:00,15.15501456,0.0001195,53.2168,193.1,93.7561,308.5872,-0.061507,-0.01090534,0.0,0 STARLINK-5155,1 54170U 22141P   22364.91667824 -.01090534  00000-0 -61507-1 0  9991,2 54170  53.2168 193.1000 0001195  93.7561 308.5872 15.15501456 10002,6897.594,95.018,520.283,518.634,0.0
54170.0,STARLINK-5155,PAYLOAD,2022-12-31 14:00:01,15.13888551,0.0001346,53.2164,190.0782,79.334,0.3268,-0.065722,-0.01111386,0.0,0 STARLINK-5155,1 54170U 22141P   22365.58334491 -.01111386  00000-0 -65722-1 0  9998,2 54170  53.2164 190.0782 0001346  79.3340   0.3268 15.13888551 10103,6902.4919999999975,95.119,525.286,523.428,0.0
54170.0,STARLINK-5155,PAYLOAD,2022-12-31 22:00:00,15.13085057,0.0001318,53.2166,188.5729,90.6318,6.218,-0.068209,-0.01126328,0.0,0 STARLINK-5155,1 54170U 22141P   22365.91667824 -.01126328  00000-0 -68209-1 0  9999,2 54170  53.2166 188.5729 0001318  90.6318   6.2180 15.13085057  1308,6904.935,95.17,527.71,525.89,0.0
54170.0,STARLINK-5155,PAYLOAD,2023-01-01 06:00:00,15.122585,0.0001402,53.2165,187.066,65.9608,47.1132,-0.068625,-0.01108615,0.0,0 STARLINK-5155,1 54170U 22141P   23001.25001157 -.01108615  00000-0 -68625-1 0  9996,2 54170  53.2165 187.0660 0001402  65.9608  47.1132 15.12258500 10200,6907.451,95.222,530.285,528.3480000000002,0.0
54170.0,STARLINK-5155,PAYLOAD,2023-01-01 14:00:01,15.11448295,0.0001452,53.2164,185.5623,80.2153,48.0958,-0.070506,-0.01113106,0.0,0 STARLINK-5155,1 54170U 22141P   23001.58334491 -.01113106  00000-0 -70506-1 0  9994,2 54170  53.2164 185.5623 0001452  80.2153  48.0958 15.11448295  1309,6909.919,95.273,532.788,530.781,0.0
54170.0,STARLINK-5155,PAYLOAD,2023-01-01 22:00:00,15.10618318,0.0001423,53.2165,184.0626,83.48200000000001,59.0967,-0.0705,-0.01089447,0.0,0 STARLINK-5155,1 54170U 22141P   23001.91667824 -.01089447  00000-0 -70500-1 0  9994,2 54170  53.2165 184.0626 0001423  83.4820  59.0967 15.10618318 10307,6912.45,95.325,535.299,533.331,0.0
54170.0,STARLINK-5155,PAYLOAD,2023-01-02 00:00:00,15.10456512,0.0001345,53.217,183.687,93.455,142.5171,-0.0750059999999999,-0.01148841,0.0,0 STARLINK-5155,1 54170U 22141P   23002.00001157 -.01148841  00000-0 -75006-1 0  9996,2 54170  53.2170 183.6870 0001345  93.4550 142.5171 15.10456512  1304,6912.944,95.335,535.739,533.879,0.0
54170.0,STARLINK-5155,PAYLOAD,2023-01-02 14:00:01,15.08951806,0.0001244,53.2161,181.0633,82.8341,85.3571,-0.011006,-0.00171822,0.0,0 STARLINK-5155,1 54170U 22141P   23002.58334491 -.00171822  00000-0 -11006-1 0  9993,2 54170  53.2161 181.0633 0001244  82.8341  85.3571 15.08951806 10414,6917.5390000000025,95.43,540.264,538.543,0.0
54170.0,STARLINK-5155,PAYLOAD,2023-01-02 22:00:00,15.08814423,0.0001806,53.2113,179.5699,73.7551,106.1348,0.0029296999999999,0.00046614,0.0,0 STARLINK-5155,1 54170U 22141P   23002.91667824  .00046614  00000-0  29297-2 0  9999,2 54170  53.2113 179.5699 0001806  73.7551 106.1348 15.08814423 10463,6917.959,95.439,541.073,538.5740000000002,0.0
54170.0,STARLINK-5155,PAYLOAD,2023-01-03 14:00:01,15.08876907,0.0001733999999999,53.2147,176.5753,80.5067,122.5682,-0.0042417999999999,-0.00067235,0.0,0 STARLINK-5155,1 54170U 22141P   23003.58334491 -.00067235  00000-0 -42418-2 0  9998,2 54170  53.2147 176.5753 0001734  80.5067 122.5682 15.08876907  1307,6917.768,95.435,540.832,538.433,0.0
54170.0,STARLINK-5155,PAYLOAD,2023-01-04 06:00:00,15.08820905,0.0001597,53.2149,173.582,77.9947,148.2777,0.0012134,0.00019066,0.0,0 STARLINK-5155,1 54170U 22141P   23004.25001157  .00019066  00000-0  12134-2 0  9992,2 54170  53.2149 173.5820 0001597  77.9947 148.2777 15.08820905 10661,6917.939,95.439,540.909,538.6990000000002,0.0
54170.0,STARLINK-5155,PAYLOAD,2023-01-04 14:00:01,15.08854589,0.0001654,53.2151,172.0861,78.4043,159.5095,-0.0010208,-0.00016504,0.0,0 STARLINK-5155,1 54170U 22141P   23004.58335648 -.00016504  00000-0 -10208-2 0  9999,2 54170  53.2151 172.0861 0001654  78.4043 159.5095 15.08854589  1304,6917.8359999999975,95.437,540.845,538.557,0.0
54170.0,STARLINK-5155,PAYLOAD,2023-01-04 22:00:00,15.08834267,0.0001623,53.215,170.5909,69.4696,179.9963,0.00072729,0.00011304,0.0,0 STARLINK-5155,1 54170U 22141P   23004.91667824  .00011304  00000-0  72729-3 0  9998,2 54170  53.2150 170.5909 0001623  69.4696 179.9963 15.08834267  1300,6917.898,95.438,540.886,538.64,0.0
54170.0,STARLINK-5155,PAYLOAD,2023-01-05 14:00:01,15.088609900000002,0.0001486999999999,53.2154,167.597,76.5949,196.0439,-0.0025892,-0.00041283,0.0,0 STARLINK-5155,1 54170U 22141P   23005.58334491 -.00041283  00000-0 -25892-2 0  9992,2 54170  53.2154 167.5970 0001487  76.5949 196.0439 15.08860990 10867,6917.816,95.436,540.71,538.653,0.0
54170.0,STARLINK-5155,PAYLOAD,2023-01-05 20:00:01,15.0882035,0.0001498,53.2154,166.4757,68.2225,123.1277,0.00032045,4.813e-05,0.0,0 STARLINK-5155,1 54170U 22141P   23005.83334491  .00004813  00000-0  32045-3 0  9995,2 54170  53.2154 166.4757 0001498  68.2225 123.1277 15.08820350  1301,6917.94,95.439,540.842,538.769,0.0
54170.0,STARLINK-5155,PAYLOAD,2023-01-06 19:00:08,15.08841227,0.0001547,53.216,162.172,77.3026,282.8139,4.6796e-05,4.57e-06,0.0,0 STARLINK-5155,1 54170U 22141P   23006.79175935  .00000457  00000-0  46796-4 0  9996,2 54170  53.2160 162.1720 0001547  77.3026 282.8139 15.08841227 11044,6917.877,95.437,540.812,538.6709999999998,0.0
54170.0,STARLINK-5155,PAYLOAD,2023-01-06 20:35:31,15.08841121,0.0001567,53.216,161.8746,76.85,283.2667,4.7142e-05,4.62e-06,0.0,0 STARLINK-5155,1 54170U 22141P   23006.85799953  .00000462  00000-0  47142-4 0  9997,2 54170  53.2160 161.8746 0001567  76.8500 283.2667 15.08841121 11067,6917.877,95.437,540.826,538.658,0.0
54170.0,STARLINK-5155,PAYLOAD,2023-01-07 02:57:03,15.08843961,0.0001537,53.2161,160.6857,76.3349,283.7814,7.183399999999999e-05,8.56e-06,0.0,0 STARLINK-5155,1 54170U 22141P   23007.12295743  .00000856  00000-0  71834-4 0  9998,2 54170  53.2161 160.6857 0001537  76.3349 283.7814 15.08843961 11109,6917.868,95.437,540.797,538.67,0.0
54170.0,STARLINK-5155,PAYLOAD,2023-01-07 20:26:19,15.08823943,0.000147,53.2165,157.4147,75.9749,284.1406,-0.00013629,-2.455e-05,0.0,0 STARLINK-5155,1 54170U 22141P   23007.85161046 -.00002455  00000-0 -13629-3 0  9992,2 54170  53.2165 157.4147 0001470  75.9749 284.1406 15.08823943 11216,6917.929,95.439,540.811,538.778,0.0
54170.0,STARLINK-5155,PAYLOAD,2023-01-08 02:47:51,15.08830694,0.0001457,53.218,156.226,73.6131,286.5021,3.9636000000000005e-06,-2.25e-06,0.0,0 STARLINK-5155,1 54170U 22141P   23008.11657370 -.00000225  00000-0  39636-5 0  9992,2 54170  53.2180 156.2260 0001457  73.6131 286.5021 15.08830694 11244,6917.9090000000015,95.438,540.7819999999998,538.766,0.0
54170.0,STARLINK-5155,PAYLOAD,2023-01-08 10:44:46,15.08842986,0.0001367,53.2173,154.7378,83.33,276.7847,0.0001408,1.954e-05,0.0,0 STARLINK-5155,1 54170U 22141P   23008.44776377  .00001954  00000-0  14080-3 0  9990,2 54170  53.2173 154.7378 0001367  83.3300 276.7847 15.08842986 11294,6917.871,95.437,540.682,538.7909999999998,0.0
54170.0,STARLINK-5155,PAYLOAD,2023-01-08 18:41:42,15.08845779,0.000122,53.2176,153.2515,72.4283,287.6842,0.00014106,1.958e-05,0.0,0 STARLINK-5155,1 54170U 22141P   23008.77896224  .00001958  00000-0  14106-3 0  9993,2 54170  53.2176 153.2515 0001220  72.4283 287.6842 15.08845779 11357,6917.863,95.437,540.572,538.884,0.0
54170.0,STARLINK-5155,PAYLOAD,2023-01-09 02:38:38,15.08846116,0.000139,53.2183,151.7652,72.6265,287.488,0.0001004,1.311e-05,0.0,0 STARLINK-5155,1 54170U 22141P   23009.11016292  .00001311  00000-0  10040-3 0  9997,2 54170  53.2183 151.7652 0001390  72.6265 287.4880 15.08846116 11402,6917.861999999999,95.437,540.688,538.765,0.0
54170.0,STARLINK-5155,PAYLOAD,2023-01-09 15:21:43,15.08842845,0.0001402,53.2174,149.3859,68.7015,291.4127,0.00015531,2.185e-05,0.0,0 STARLINK-5155,1 54170U 22141P   23009.64008423  .00002185  00000-0  15531-3 0  9992,2 54170  53.2174 149.3859 0001402  68.7015 291.4127 15.08842845 11478,6917.871999999999,95.437,540.707,538.7669999999998,0.0
